NAVSTAR 48 (USA 151)    
1 26407U 00040A   26202.20726634  .00000072  00000+0  00000+0 0  9992
2 26407  54.8479 213.8108 0120353 302.8221  64.5906  2.00557995190634
NAVSTAR 51 (USA 166)    
1 27663U 03005A   26202.02391274  .00000071  00000+0  00000+0 0  9998
2 27663  54.8784 213.6243 0148414  53.1925 318.0536  2.00558800171991
NAVSTAR 54 (USA 177)    
1 28190U 04009A   26202.28441581 -.00000047  00000+0  00000+0 0  9998
2 28190  54.8016 274.3079 0117363 174.5933 177.1682  2.00553607163629
NAVSTAR 56 (USA 180)    
1 28474U 04045A   26202.19867888 -.00000110  00000+0  00000+0 0  9996
2 28474  55.1141 323.5263 0170297 317.2032  37.8025  2.00557466159108
NAVSTAR 57 (USA 183)    
1 28874U 05038A   26202.23983431 -.00000042  00000+0  00000+0 0  9995
2 28874  54.8508 271.8014 0128317 296.4937  52.9961  2.00563407152519
INMARSAT 4-F2           
1 28899U 05044A   26202.28837409 -.00000262  00000+0  00000+0 0  9991
2 28899   5.1394  43.6869 0002843  60.7708  81.9032  1.00273562 75866
NAVSTAR 58 (USA 190)    
1 29486U 06042A   26201.91223605  .00000032  00000+0  00000+0 0  9993
2 29486  54.7131 150.0000 0107343  55.3231 316.6702  2.00567963145075
NAVSTAR 59 (USA 192)    
1 29601U 06052A   26201.82384610  .00000069  00000+0  00000+0 0  9997
2 29601  54.9318 212.6728 0084744  91.0099 269.9903  2.00560059144085
NAVSTAR 60 (USA 196)    
1 32260U 07047A   26201.13252352 -.00000064  00000+0  00000+0 0  9994
2 32260  54.1195  78.7075 0167952  88.1073 273.8731  2.00553782137476
COSMOS 2433 [GLONASS-M] 
1 32275U 07052A   26202.17145376 -.00000087  00000+0  00000+0 0  9993
2 32275  65.5556 314.7897 0003719 203.8397 156.1614  2.13104045145783
COSMOS 2432 [GLONASS-M] 
1 32276U 07052B   26202.24677389 -.00000088  00000+0  00000+0 0  9997
2 32276  65.5714 314.9158 0007374 320.9120  40.6285  2.13103020145815
NAVSTAR 61 (USA 199)    
1 32384U 07062A   26201.45513610 -.00000047  00000+0  00000+0 0  9991
2 32384  55.0052 272.8137 0036066 167.9290 193.1150  2.00561991136186
COSMOS 2434 [GLONASS-M] 
1 32393U 07065A   26201.60474382  .00000086  00000+0  00000+0 0  9995
2 32393  64.3202 190.7886 0001234 328.2500 206.6629  2.13101204144484
COSMOS 2436 [GLONASS-M] 
1 32395U 07065C   26201.38576125  .00000084  00000+0  00000+0 0  9998
2 32395  64.3289 190.8685 0017323 353.6543 145.4326  2.13100001144437
NAVSTAR 62 (USA 201)    
1 32711U 08012A   26202.03782652  .00000028  00000+0  00000+0 0  9998
2 32711  54.5004 148.5724 0211731 248.2063 109.5080  2.00573350134438
NAVSTAR 64 (USA 206)    
1 35752U 09043A   26202.26960773 -.00000087  00000+0  00000+0 0  9994
2 35752  56.2317  26.1144 0053656  84.6576  89.8280  2.00552573124042
COSMOS 2456 [GLONASS-M] 
1 36111U 09070A   26202.23098801 -.00000053  00000+0  00000+0 0  9998
2 36111  65.0317  69.8112 0003455 344.0755 109.6036  2.13103471129153
COSMOS 2457 [GLONASS-M] 
1 36112U 09070B   26201.23645572 -.00000051  00000+0  00000+0 0  9999
2 36112  65.0165  69.6883 0004303 122.0917  55.7210  2.13100985129135
COSMOS 2460 [GLONASS-M] 
1 36402U 10007C   26200.58253774 -.00000079  00000+0  00000+0 0  9999
2 36402  65.3996 313.3704 0001858 149.6273 248.4791  2.13101428127423
NAVSTAR 65 (USA 213)    
1 36585U 10022A   26201.36147286  .00000068  00000+0  00000+0 0  9992
2 36585  54.2682 207.2257 0126856  66.1603 292.7704  2.00564074118257
BEIDOU-2 IGSO-1         
1 36828U 10036A   26200.58927551 -.00000097  00000+0  00000+0 0  9994
2 36828  54.3073 162.6674 0058652 225.1805 228.5775  1.00262639 58426
BEIDOU-2 G4             
1 37210U 10057A   26201.86385770 -.00000115  00000+0  00000+0 0  9997
2 37210   3.7289  68.7401 0005353 185.2694 155.5497  1.00272843 57624
BEIDOU-2 IGSO-2         
1 37256U 10068A   26200.83841608 -.00000205  00000+0  00000+0 0  9992
2 37256  47.4862 271.4234 0057032 214.1385 222.1771  1.00272665 57126
BEIDOU-2 IGSO-3         
1 37384U 11013A   26201.49639638 -.00000175  00000+0  00000+0 0  9992
2 37384  62.4540  39.8354 0035791 183.4623 359.8458  1.00259464 55993
GSAT-8                  
1 37605U 11022A   26202.19948985  .00000084  00000+0  00000+0 0  9992
2 37605   2.2168  81.4104 0002508 151.8692 192.5738  1.00271458 53558
BEIDOU-2 IGSO-4         
1 37763U 11038A   26201.95557980 -.00000024  00000+0  00000+0 0  9993
2 37763  54.6049 165.3724 0160131 231.4816 340.2900  1.00278607 54986
GSAT0101 (GALILEO-PFM)  
1 37846U 11060A   26198.93738454 -.00000105  00000+0  00000+0 0  9990
2 37846  56.9832 340.9281 0002114  62.8592 297.1517  1.70475655 91642
GSAT0102 (GALILEO-FM2)  
1 37847U 11060B   26202.08443407 -.00000107  00000+0  00000+0 0  9996
2 37847  56.9829 340.8434 0001994   5.4118 171.6653  1.70476022 91703
COSMOS 2476 [GLONASS-M] 
1 37867U 11064A   26199.17433977 -.00000032  00000+0  00000+0 0  9995
2 37867  65.2874  71.8256 0022067 235.6441 301.3919  2.13103618114429
COSMOS 2477 [GLONASS-M] 
1 37868U 11064B   26202.23753319 -.00000053  00000+0  00000+0 0  9996
2 37868  65.2960  71.8019 0019065 236.4863 310.7777  2.13102816114485
COSMOS 2475 [GLONASS-M] 
1 37869U 11064C   26200.41318713 -.00000044  00000+0  00000+0 0  9990
2 37869  65.3016  71.8854 0024569 250.6224 292.0479  2.13101651114454
